ORBCOMM-X               
1 21576U 91050C   24186.41832190  .00000520  00000+0  16965-3 0  9991
2 21576  98.3890 253.3652 0004410 143.3241 216.8252 14.42575613731963
ORBCOMM FM01            
1 23545U 95017A   24186.50127063  .00004921  00000+0  64636-3 0  9999
2 23545  69.9653 215.3906 0003994 167.8736 192.2511 14.80846909560863
ORBCOMM FM02            
1 23546U 95017B   24186.54399556  .00006344  00000+0  83645-3 0  9994
2 23546  69.9677 234.7999 0005297 147.1798 212.9682 14.80520451560516
ORBCOMM FM08            
1 25112U 97084A   24186.51591436  .00001592  00000+0  51443-3 0  9990
2 25112  45.0139 233.3688 0009515 288.5460  71.4357 14.42871332391275
ORBCOMM FM10            
1 25113U 97084B   24186.52670257  .00001703  00000+0  54864-3 0  9995
2 25113  45.0143 235.2215 0007364 266.2930  93.7078 14.42773141566251
ORBCOMM FM11            
1 25114U 97084C   24186.55023536  .00001522  00000+0  49611-3 0  9994
2 25114  45.0128 235.2243 0008166 266.2193  93.7724 14.42639577391223
ORBCOMM FM12            
1 25115U 97084D   24186.58067746  .00001509  00000+0  49276-3 0  9991
2 25115  45.0144 234.7935 0007136 267.0608  92.9426 14.42601491391022
ORBCOMM FM09            
1 25116U 97084E   24186.52413367  .00001562  00000+0  50887-3 0  9999
2 25116  45.0148 235.7671 0008031 255.5115 104.4844 14.42566000391226
